satname,norad_id,inclination_deg,eccentricity,mean_motion_rev_per_day,perigee_km,apogee_km,l1,l2
STARLINK-1392,45677,53.1576,0.0001518,15.29346095,476.72513600700495,478.8065881159264,1 45677U 20035W   26087.67394024  .00001854  00000+0  76594-4 0  9999,2 45677  53.1576 336.6865 0001518 102.8053 257.3117 15.29346095321667
STARLINK-1394,45679,53.048,0.0003793,15.53045484,405.266202742112,410.41404498827706,1 45679U 20035Y   26087.87724971  .00087366  00000+0  13665-2 0  9991,2 45679  53.0480 304.2795 0003793 211.5701 148.5081 15.53045484322139
STARLINK-1402,45685,53.0468,0.0002649,15.47684683,421.69931376236946,425.3028216106286,1 45685U 20035AE  26087.85028432  .00079363  00000+0  15032-2 0  9993,2 45685  53.0468 291.9506 0002649 269.9110  90.1594 15.47684683322318
STARLINK-1404,45686,53.1606,0.0001463,15.37108455,453.6653250882109,455.6646029428812,1 45686U 20035AF  26087.91668981  .00010489  00000+0  29475-3 0  9991,2 45686  53.1606 320.2168 0001463  92.2838  99.2243 15.37108455  5856
STARLINK-1413,45689,53.1615,0.0001325,15.30204897,474.2923806871613,476.10851511085457,1 45689U 20035AJ  26087.83942284  .00002840  00000+0  10797-3 0  9995,2 45689  53.1615 320.6319 0001325  84.7648 275.3504 15.30204897321828
STARLINK-1417,45693,53.0532,0.000158,15.13441434,524.6234847162268,526.8051017248845,1 45693U 20035AN  26087.81935691  .00010124  00000+0  57577-3 0  9993,2 45693  53.0532 327.5353 0001580 297.2574  62.8256 15.13441434321796
STARLINK-1420,45695,53.0513,0.0004136,15.57229939,392.87655849609837,398.4798584365408,1 45695U 20035AQ  26087.82460054  .00085982  00000+0  11537-2 0  9991,2 45695  53.0513 289.8414 0004136 198.8121 161.2737 15.57229939322330
STARLINK-1422,45696,53.1608,0.0001242,15.30215728,474.3169283540283,476.0192893430658,1 45696U 20035AR  26087.84677662 -.00001516  00000+0 -39035-4 0  9997,2 45696  53.1608 320.6017 0001242  77.8735 282.2405 15.30215728321902
STARLINK-1351,45697,53.0495,0.0004178,15.55803359,396.98653908015785,402.65019858635424,1 45697U 20035AS  26087.81801515  .00112006  00000+0  15773-2 0  9997,2 45697  53.0495 289.2668 0004178 221.7209 138.3484 15.55803359322342
STARLINK-1400,45700,53.049,0.0006958,15.53746985,401.07717534031417,410.51769850273377,1 45700U 20035AV  26087.81131836  .00096564  00000+0  14691-2 0  9992,2 45700  53.0490 290.9024 0006958 168.0306 192.0870 15.53746985322318
STARLINK-1403,45701,53.1571,0.0001461,15.29364824,476.70824993521,478.7115283962239,1 45701U 20035AW  26087.87777696  .00002835  00000+0  11052-3 0  9996,2 45701  53.1571 307.4980 0001461  81.0265 279.0901 15.29364824322083
STARLINK-1407,45703,53.0321,0.0005073,15.64338415,371.71620027592326,378.56807729013235,1 45703U 20035AY  26087.91668981  .00115668  00000+0  11751-2 0  9993,2 45703  53.0321 221.7741 0005073 184.5245 314.9133 15.64338415  5934
STARLINK-1411,45706,53.0403,0.0003062,15.66153598,367.8568090642193,371.98932104805954,1 45706U 20035BB  26087.79903082  .00131972  00000+0  12445-2 0  9993,2 45706  53.0403 247.7690 0003062 244.7431 115.3267 15.66153598322911
STARLINK-1423,45710,53.0504,0.0007026,15.56250357,393.7591501084089,403.28170912850874,1 45710U 20035BF  26087.81320991  .00070319  00000+0  98106-3 0  9999,2 45710  53.0504 289.6046 0007026 189.7276 170.3600 15.56250357322324
STARLINK-1433,45711,53.0484,0.0006633,15.58375346,387.8677592839513,396.8494987854292,1 45711U 20035BG  26087.81319578  .00104775  00000+0  13416-2 0  9993,2 45711  53.0484 288.3681 0006633 183.1913 176.9057 15.58375346322340
STARLINK-1434,45712,53.053,0.0004182,15.28388643,477.76045978220645,483.49713149367835,1 45712U 20035BH  26087.80339272  .00051177  00000+0  18265-2 0  9990,2 45712  53.0530 291.3844 0004182 156.9342 203.1845 15.28388643322315
STARLINK-1465,45731,53.0501,0.0005712,15.52940985,404.26822003128655,412.02086806720763,1 45731U 20038B   26087.84078127  .00097659  00000+0  15299-2 0  9996,2 45731  53.0501 131.0542 0005712   6.3430 353.7651 15.52940985319352
STARLINK-1471,45735,53.0469,0.0001645,15.49917547,415.8492559691549,418.0848452017972,1 45735U 20038F   26087.61052723  .00032042  00000+0  56946-3 0  9999,2 45735  53.0469  51.3058 0001645  21.5860 338.5217 15.49917547320469
STARLINK-1480,45741,53.0531,0.0001728,15.54729658,401.76682420650377,404.1103639318144,1 45741U 20038M   26087.81098588  .00059052  00000+0  87438-3 0  9997,2 45741  53.0531 125.4434 0001728  63.7072 296.4116 15.54729658319448
STARLINK-1500,45744,53.0361,0.0003105,15.35789448,456.4538221889379,460.6994213480566,1 45744U 20038Q   26087.75081509  .00026356  00000+0  75429-3 0  9996,2 45744  53.0361 103.2674 0003105   2.1827 357.9187 15.35789448319744
STARLINK-1504,45746,53.0228,0.0001078,15.54433347,403.06922723182197,404.5314129180315,1 45746U 20038S   26087.59717677  .00040178  00000+0  60509-3 0  9993,2 45746  53.0228  50.8802 0001078  56.1164 303.9948 15.54433347320459
STARLINK-1506,45747,53.076,0.000316,15.26594748,483.831813981471,488.1699491226118,1 45747U 20038T   26087.77907625  .00007518  00000+0  29618-3 0  9995,2 45747  53.0760 114.0350 0003160 339.1518  20.9350 15.26594748319603
STARLINK-1464,45751,53.0504,0.0004075,15.4579127,426.280143325449,431.8280040505033,1 45751U 20038X   26087.78014885  .00068803  00000+0  13939-2 0  9990,2 45751  53.0504 113.7156 0004075   4.0411 356.0628 15.45791270319601
STARLINK-1477,45754,53.0487,0.0002791,15.15307626,518.1195092859662,521.9700743621624,1 45754U 20038AA  26087.83116691  .00010700  00000+0  57670-3 0  9991,2 45754  53.0487 125.8862 0002791  37.6616 322.4572 15.15307626319435
STARLINK-1478,45755,53.0493,0.0004349,15.58240375,389.8049274158593,395.6942445683544,1 45755U 20038AB  26087.31498164  .00097393  00000+0  12557-2 0  9990,2 45755  53.0493 107.6034 0004349 356.7865   3.3118 15.58240375319631
STARLINK-1493,45759,53.0509,0.0004708,15.53243716,404.06817395611506,410.45730635144355,1 45759U 20038AF  26087.77084959  .00086993  00000+0  13509-2 0  9999,2 45759  53.0509 112.6927 0004708  59.1561 300.9911 15.53243716319607
STARLINK-1494,45760,53.0484,0.0006589,15.77700579,332.5327584512761,341.3819097647638,1 45760U 20038AG  26087.20885031  .00138388  00000+0  79959-3 0  9997,2 45760  53.0484  59.2840 0006589  70.1482 290.0247 15.77700579320317
STARLINK-1502,45764,53.0511,0.0005983,15.49899906,412.9530702494085,421.0841534545507,1 45764U 20038AL  26087.78942891  .00078815  00000+0  13810-2 0  9993,2 45764  53.0511 114.5885 0005983  50.6428 309.5109 15.49899906319599
STARLINK-1470,45772,53.046,0.0003271,15.29473844,475.1416571762484,479.6265390786439,1 45772U 20038AU  26087.69812557  .00039077  00000+0  13543-2 0  9997,2 45772  53.0460  85.9814 0003271  57.5384 302.5931 15.29473844319985
STARLINK-1482,45773,53.1591,0.0002447,15.3144695,469.81832316416785,473.17053278501953,1 45773U 20038AV  26087.74605354  .00023069  00000+0  75878-3 0  9993,2 45773  53.1591 102.4311 0002447  68.3826 291.7436 15.31446950319760
STARLINK-1496,45780,53.0509,0.0001974,15.51109722,412.14415012354584,414.8254824166088,1 45780U 20038BC  26087.27949506  .00095712  00000+0  16024-2 0  9990,2 45780  53.0509  88.6559 0001974 330.4521  29.6376 15.51109722319894
STARLINK-1513,45786,53.1611,0.0001353,15.30195131,474.30234691224814,476.15686791621283,1 45786U 20038BJ  26087.76241884 -.00000986  00000+0 -21184-4 0  9990,2 45786  53.1611 102.5611 0001353  88.5643 271.5512 15.30195131319769
STARLINK-1522,46027,53.0652,0.0002455,15.09875417,534.8827790682508,538.2779052832584,1 46027U 20055A   26087.28719874  .00028590  00000+0  17565-2 0  9999,2 46027  53.0652  42.6135 0002455  94.3867 265.7405 15.09875417311692
STARLINK-1523,46028,53.1587,0.0001866,15.29364396,476.4318669919976,478.99046952839217,1 46028U 20055B   26087.26715189 -.00002507  00000+0 -74522-4 0  9993,2 46028  53.1587  40.4077 0001866 109.7380 250.3822 15.29364396311748
STARLINK-1526,46029,53.1565,0.0001533,15.29371876,476.6378159808064,478.73981217540313,1 46029U 20055C   26087.84447969  .00003477  00000+0  13270-3 0  9993,2 46029  53.1565  37.6948 0001533  99.8442 260.2731 15.29371876311828
STARLINK-1555,46032,53.1593,0.0001271,15.30214135,474.30180949818896,476.04392086591906,1 46032U 20055F   26087.24547019  .00013308  00000+0  46045-3 0  9998,2 46032  53.1593  40.5091 0001271 120.4031 239.7095 15.30214135311739
STARLINK-1556,46033,53.1572,0.0001651,15.29320157,476.7114590718502,478.97530379379896,1 46033U 20055G   26087.87291523  .00008090  00000+0  29271-3 0  9998,2 46033  53.1572  37.5206 0001651  19.7169 340.3895 15.29320157311800
STARLINK-1557,46034,53.1576,0.0001527,15.29369487,476.6490679573217,478.74283934136565,1 46034U 20055H   26087.86667967  .00008440  00000+0  30435-3 0  9990,2 46034  53.1576  37.4496 0001527  81.7151 278.4023 15.29369487311800
STARLINK-1558,46035,53.1564,0.0001993,15.29397845,476.24485581691897,478.97755705200416,1 46035U 20055J   26087.89223953  .00008148  00000+0  29400-3 0  9992,2 46035  53.1564  37.5100 0001993  63.3016 296.8188 15.29397845311832
STARLINK-1560,46036,53.1579,0.0001658,15.29366775,476.56736008715507,478.84075698216566,1 46036U 20055K   26087.86345270  .00012284  00000+0  43719-3 0  9992,2 46036  53.1579  37.5045 0001658  77.1100 283.0086 15.29366775311835
STARLINK-1567,46038,53.0945,0.0004778,15.52634061,405.7959413439785,412.2817665900302,1 46038U 20055M   26087.00594170  .01220095  00000+0  17713-1 0  9990,2 46038  53.0945  40.4193 0004778 177.3929 182.7106 15.52634061311704
STARLINK-1569,46039,53.1591,0.0001358,15.30198908,474.28764428262366,476.14901559023383,1 46039U 20055N   26087.56889086 -.00001422  00000+0 -35893-4 0  9999,2 46039  53.1591  39.0119 0001358  98.2423 261.8732 15.30198908311778
STARLINK-1582,46043,53.1606,0.0001434,15.30202427,474.22505319677566,476.19059249196744,1 46043U 20055S   26087.83647346  .00016711  00000+0  57504-3 0  9992,2 46043  53.1606  37.7598 0001434  83.4651 276.6513 15.30202427311818
